NORAD_CAT_ID,OBJECT_NAME,OBJECT_TYPE,EPOCH,MEAN_MOTION,ECCENTRICITY,INCLINATION,RA_OF_ASC_NODE,ARG_OF_PERICENTER,MEAN_ANOMALY,BSTAR,MEAN_MOTION_DOT,MEAN_MOTION_DDOT,TLE_LINE0,TLE_LINE1,TLE_LINE2,SEMIMAJOR_AXIS,PERIOD,APOGEE,PERIGEE,DECAYED
53529.0,STARLINK-4478,PAYLOAD,2022-09-01 20:00:01,15.73203103,0.000123,53.2155,90.2043,60.9296,170.0108,0.0001054999999999,0.00014213,0.0,0 STARLINK-4478,1 53529U 22101C   22244.83335648  .00014213  00000-0  10550-3 0  9999,2 53529  53.2155  90.2043 0001230  60.9296 170.0108 15.73203103  2074,6727.886,91.533,350.579,348.9240000000001,0.0
53529.0,STARLINK-4478,PAYLOAD,2022-09-01 22:00:00,15.73196519,0.0001249,53.2157,89.7923,59.093,284.017,0.00028828,0.00040025,0.0,0 STARLINK-4478,1 53529U 22101C   22244.91667824  .00040025  00000-0  28828-3 0  9999,2 53529  53.2157  89.7923 0001249  59.0930 284.0170 15.73196519  1302,6727.905,91.533,350.61,348.93,0.0
53529.0,STARLINK-4478,PAYLOAD,2022-09-02 14:00:01,15.73202694,9.46e-05,53.2161,86.4912,62.0814,98.9621,0.00024358,0.00033706,0.0,0 STARLINK-4478,1 53529U 22101C   22245.58334491  .00033706  00000-0  24358-3 0  9996,2 53529  53.2161  86.4912 0000946  62.0814  98.9621 15.73202694  1302,6727.887,91.533,350.389,349.116,0.0
53529.0,STARLINK-4478,PAYLOAD,2022-09-02 22:00:01,15.73232191,0.0001174,53.2158,84.8438,49.5298,200.5234,-0.00020269,-0.00029007,0.0,0 STARLINK-4478,1 53529U 22101C   22245.91668981 -.00029007  00000-0 -20269-3 0  9995,2 53529  53.2158  84.8438 0001174  49.5298 200.5234 15.73232191  1309,6727.803000000001,91.531,350.458,348.879,0.0
53529.0,STARLINK-4478,PAYLOAD,2022-09-03 04:00:00,15.732303699999996,0.0001163,53.2152,83.6058,51.9092,174.8025,-0.00039218,-0.00055369,0.0,0 STARLINK-4478,1 53529U 22101C   22246.16667824 -.00055369  00000-0 -39218-3 0  9992,2 53529  53.2152  83.6058 0001163  51.9092 174.8025 15.73230370  2281,6727.809,91.531,350.456,348.891,0.0
53529.0,STARLINK-4478,PAYLOAD,2022-09-03 14:00:01,15.73226444,0.000113,53.2159,81.5428,65.3235,2.5613,0.00034367,0.00047942,0.0,0 STARLINK-4478,1 53529U 22101C   22246.58334491  .00047942  00000-0  34367-3 0  9995,2 53529  53.2159  81.5428 0001130  65.3235   2.5613 15.73226444  2353,6727.82,91.532,350.445,348.925,0.0
53529.0,STARLINK-4478,PAYLOAD,2022-09-03 22:00:00,15.73267304,0.0001261,53.2164,79.8939,56.3646,100.5014,-0.00052029,-0.00073216,0.0,0 STARLINK-4478,1 53529U 22101C   22246.91667824 -.00073216  00000-0 -52029-3 0  9991,2 53529  53.2164  79.8939 0001261  56.3646 100.5014 15.73267304  1305,6727.703,91.529,350.417,348.72,0.0
53529.0,STARLINK-4478,PAYLOAD,2022-09-04 06:00:00,15.73196189,0.0001286999999999,53.217,78.2394,58.9302,186.9406,-0.0046071,-0.0060277,0.0,0 STARLINK-4478,1 53529U 22101C   22247.25001157 -.00602770  00000-0 -46071-2 0  9992,2 53529  53.2170  78.2394 0001287  58.9302 186.9406 15.73196189  2457,6727.906,91.533,350.63699999999994,348.905,0.0
53529.0,STARLINK-4478,PAYLOAD,2022-09-04 12:00:00,15.73095958,0.0001264999999999,53.2173,76.9977,64.9015,157.4504,-0.0084597,-0.01062711,0.0,0 STARLINK-4478,1 53529U 22101C   22247.50001157 -.01062711  00000-0 -84597-2 0  9991,2 53529  53.2173  76.9977 0001265  64.9015 157.4504 15.73095958  2494,6728.191999999999,91.539,350.908,349.206,0.0
53529.0,STARLINK-4478,PAYLOAD,2022-09-04 14:00:01,15.72405994,0.0001515,53.2172,76.5821,71.9276,262.9636,-0.0035566,-0.00457734,0.0,0 STARLINK-4478,1 53529U 22101C   22247.58335648 -.00457734  00000-0 -35566-2 0  9998,2 53529  53.2172  76.5821 0001515  71.9276 262.9636 15.72405994  1303,6730.16,91.579,353.0440000000001,351.005,0.0
53529.0,STARLINK-4478,PAYLOAD,2022-09-04 20:00:01,15.72327905,0.000112,53.2175,75.3488,59.5227,251.1645,-0.0092121,-0.01113534,0.0,0 STARLINK-4478,1 53529U 22101C   22247.83334491 -.01113534  00000-0 -92121-2 0  9999,2 53529  53.2175  75.3488 0001120  59.5227 251.1645 15.72327905  1307,6730.3830000000025,91.584,353.00199999999984,351.494,0.0
53529.0,STARLINK-4478,PAYLOAD,2022-09-05 04:00:00,15.71522992,0.0001353,53.2172,73.6983,39.4107,358.664,-0.0095021,-0.01110236,0.0,0 STARLINK-4478,1 53529U 22101C   22248.16667824 -.01110236  00000-0 -95021-2 0  9993,2 53529  53.2172  73.6983 0001353  39.4107 358.6640 15.71522992  2601,6732.681,91.631,355.457,353.635,0.0
53529.0,STARLINK-4478,PAYLOAD,2022-09-05 14:00:01,15.70517664,0.0001326,53.2175,71.6383,56.9366,179.0149,-0.0098818,-0.01106813,0.0,0 STARLINK-4478,1 53529U 22101C   22248.58334491 -.01106813  00000-0 -98818-2 0  9993,2 53529  53.2175  71.6383 0001326  56.9366 179.0149 15.70517664  1301,6735.554,91.69,358.31199999999984,356.525,0.0
53529.0,STARLINK-4478,PAYLOAD,2022-09-05 20:00:01,15.69915652,0.0001385999999999,53.2173,70.4058,57.192,152.7604,-0.010139,-0.01107189,0.0,0 STARLINK-4478,1 53529U 22101C   22248.83334491 -.01107189  00000-0 -10139-1 0  9997,2 53529  53.2173  70.4058 0001386  57.1920 152.7604 15.69915652  2706,6737.275,91.725,360.074,358.207,0.0
53529.0,STARLINK-4478,PAYLOAD,2022-09-06 12:00:00,15.68308864,0.0001261,53.2176,67.1182,46.3985,331.5737,-0.010814,-0.01104649,0.0,0 STARLINK-4478,1 53529U 22101C   22249.50001157 -.01104649  00000-0 -10814-1 0  9990,2 53529  53.2176  67.1182 0001261  46.3985 331.5737 15.68308864  2808,6741.876,91.819,364.591,362.891,0.0
53529.0,STARLINK-4478,PAYLOAD,2022-09-06 14:00:01,15.68108027,0.0001456,53.2177,66.7087,47.2214,81.4816,-0.010903,-0.0110462,0.0,0 STARLINK-4478,1 53529U 22101C   22249.58334491 -.01104620  00000-0 -10903-1 0  9996,2 53529  53.2177  66.7087 0001456  47.2214  81.4816 15.68108027  1301,6742.4519999999975,91.83,365.299,363.335,0.0
53529.0,STARLINK-4478,PAYLOAD,2022-09-06 22:00:00,15.6730756,0.0001609,53.2173,65.0734,44.2149,166.8045,-0.011285,-0.01124071,0.0,0 STARLINK-4478,1 53529U 22101C   22249.91667824 -.01124071  00000-0 -11285-1 0  9998,2 53529  53.2173  65.0734 0001609  44.2149 166.8045 15.67307560  1306,6744.746999999999,91.877,367.698,365.527,0.0
53529.0,STARLINK-4478,PAYLOAD,2022-09-07 04:00:00,15.66705199,0.0001565999999999,53.2174,63.8414,42.86600000000001,139.2644,-0.01159,-0.01126157,0.0,0 STARLINK-4478,1 53529U 22101C   22250.16667824 -.01126157  00000-0 -11590-1 0  9993,2 53529  53.2174  63.8414 0001566  42.8660 139.2644 15.66705199  2918,6746.476,91.913,369.398,367.285,0.0
53529.0,STARLINK-4478,PAYLOAD,2022-09-07 14:00:01,15.65702121,0.0001431999999999,53.2175,61.7966,37.2313,335.5385,-0.012073,-0.01126238,0.0,0 STARLINK-4478,1 53529U 22101C   22250.58334491 -.01126238  00000-0 -12073-1 0  9997,2 53529  53.2175  61.7966 0001432  37.2313 335.5385 15.65702121  1309,6749.357,91.972,372.189,370.256,0.0
53529.0,STARLINK-4478,PAYLOAD,2022-09-07 22:00:00,15.64893079,0.0001423,53.2173,60.1648,43.849,48.3483,-0.012346,-0.01115837,0.0,0 STARLINK-4478,1 53529U 22101C   22250.91667824 -.01115837  00000-0 -12346-1 0  9999,2 53529  53.2173  60.1648 0001423  43.8490  48.3483 15.64893079  3038,6751.683000000001,92.019,374.509,372.588,0.0
53529.0,STARLINK-4478,PAYLOAD,2022-09-08 14:00:01,15.63290798,0.0001551999999999,53.2176,56.9022,42.8513,205.3036,-0.013225,-0.01120878,0.0,0 STARLINK-4478,1 53529U 22101C   22251.58334491 -.01120878  00000-0 -13225-1 0  9992,2 53529  53.2176  56.9022 0001552  42.8513 205.3036 15.63290798  1303,6756.295999999999,92.113,379.209,377.112,0.0
53529.0,STARLINK-4478,PAYLOAD,2022-09-08 22:00:00,15.62486929,0.0001364,53.2174,55.2761,42.0981,282.5881,-0.013622,-0.01118639,0.0,0 STARLINK-4478,1 53529U 22101C   22251.91667824 -.01118639  00000-0 -13622-1 0  9991,2 53529  53.2174  55.2761 0001364  42.0981 282.5881 15.62486929  3180,6758.613,92.161,381.4,379.556,0.0
53529.0,STARLINK-4478,PAYLOAD,2022-09-09 14:00:01,15.60881782,0.000178,53.2176,52.0254,33.3829,81.4732,-0.014518,-0.01119795,0.0,0 STARLINK-4478,1 53529U 22101C   22252.58334491 -.01119795  00000-0 -14518-1 0  9995,2 53529  53.2176  52.0254 0001780  33.3829  81.4732 15.60881782  1307,6763.246,92.256,386.315,383.907,0.0
53529.0,STARLINK-4478,PAYLOAD,2022-09-09 22:00:00,15.60074974,0.0001810999999999,53.2172,50.4047,35.0316,153.4625,-0.014871,-0.0111253,0.0,0 STARLINK-4478,1 53529U 22101C   22252.91667824 -.01112530  00000-0 -14871-1 0  9993,2 53529  53.2172  50.4047 0001811  35.0316 153.4625 15.60074974  1308,6765.5769999999975,92.303,388.668,386.217,0.0
53529.0,STARLINK-4478,PAYLOAD,2022-09-10 04:00:00,15.59476963,0.0001520999999999,53.2173,49.188,45.5024,107.5863,-0.015325,-0.01119589,0.0,0 STARLINK-4478,1 53529U 22101C   22253.16667824 -.01119589  00000-0 -15325-1 0  9997,2 53529  53.2173  49.1880 0001521  45.5024 107.5863 15.59476963  3385,6767.307,92.339,390.201,388.142,0.0
53529.0,STARLINK-4478,PAYLOAD,2022-09-10 14:00:01,15.58474401,0.0001634,53.2173,47.1658,32.1628,300.7105,-0.0159449999999999,-0.01120992,0.0,0 STARLINK-4478,1 53529U 22101C   22253.58334491 -.01120992  00000-0 -15945-1 0  9992,2 53529  53.2173  47.1658 0001634  32.1628 300.7105 15.58474401  1303,6770.209,92.398,393.18,390.967,0.0
53529.0,STARLINK-4478,PAYLOAD,2022-09-10 20:00:01,15.57870951,0.0001696999999999,53.2173,45.955,33.6641,262.3565,-0.016277,-0.01118671,0.0,0 STARLINK-4478,1 53529U 22101C   22253.83334491 -.01118671  00000-0 -16277-1 0  9990,2 53529  53.2173  45.9550 0001697  33.6641 262.3565 15.57870951  3483,6771.956999999999,92.434,394.971,392.673,0.0
53529.0,STARLINK-4478,PAYLOAD,2022-09-10 22:00:00,15.5766943,0.0001609,53.2171,45.551,32.3596,11.2566,-0.016371,-0.01116748,0.0,0 STARLINK-4478,1 53529U 22101C   22253.91667824 -.01116748  00000-0 -16371-1 0  9996,2 53529  53.2171  45.5510 0001609  32.3596  11.2566 15.57669430  1300,6772.541,92.446,395.496,393.316,0.0
53529.0,STARLINK-4478,PAYLOAD,2022-09-11 12:00:00,15.56265271,0.0001601,53.2175,42.726000000000006,36.8365,38.2591,-0.017287,-0.01118392,0.0,0 STARLINK-4478,1 53529U 22101C   22254.50001157 -.01118392  00000-0 -17287-1 0  9997,2 53529  53.2175  42.7260 0001601  36.8365  38.2591 15.56265271  3594,6776.614000000001,92.529,399.564,397.394,0.0
